{"type": "FeatureCollection", "features": [ {"type": "Feature", "properties": {"norad_id": 66948, "name": "STARLINK-36116", "group": "last-30-days", "lat": 50.911061858742364, "lon": 104.02967422363878, "alt_km": 289.18437753597755, "timestamp": "2025-12-15T11:38:35.908323+00:00", "meta": {"OBJECT_NAME": "STARLINK-36116", "OBJECT_ID": "2025-286Z", "EPOCH": "2025-12-14T20:00:06.000192", "MEAN_MOTION": 15.93968064, "ECCENTRICITY": 5.725e-05, "INCLINATION": 53.156, "RA_OF_ASC_NODE": 39.9792, "ARG_OF_PERICENTER": 75.4578, "MEAN_ANOMALY": 220.7658, "EPHEMERIS_TYPE": 0, "CLASSIFICATION_TYPE": "U", "NORAD_CAT_ID": 66948, "ELEMENT_SET_NO": 999, "REV_AT_EPOCH": 233, "BSTAR": -0.0040980956, "MEAN_MOTION_DOT": -0.01537834, "MEAN_MOTION_DDOT": 0.00068286809}, "tle": {"line1": "1 66948U 25286Z   25348.83340278 -.01537834  68287-3 -40981-2 0  9994", "line2": "2 66948  53.1560  39.9792 0000572  75.4578 220.7658 15.93968064  2333"}}, "geometry": {"type": "Point", "coordinates": [104.02967422363878, 50.911061858742364]}}, {"type": "Feature", "properties": {"norad_id": 66949, "name": "STARLINK-36096", "group": "last-30-days", "lat": 51.861110057809974, "lon": 109.38873882572426, "alt_km": 288.71585928688364, "timestamp": "2025-12-15T11:38:35.908333+00:00", "meta": {"OBJECT_NAME": "STARLINK-36096", "OBJECT_ID": "2025-286AA", "EPOCH": "2025-12-14T20:00:06.000192", "MEAN_MOTION": 15.94091795, "ECCENTRICITY": 6.51e-05, "INCLINATION": 53.156, "RA_OF_ASC_NODE": 39.9726, "ARG_OF_PERICENTER": 71.0352, "MEAN_ANOMALY": 228.4068, "EPHEMERIS_TYPE": 0, "CLASSIFICATION_TYPE": "U", "NORAD_CAT_ID": 66949, "ELEMENT_SET_NO": 999, "REV_AT_EPOCH": 233, "BSTAR": -0.0041375436, "MEAN_MOTION_DOT": -0.01562554, "MEAN_MOTION_DDOT": 0.00070399492}, "tle": {"line1": "1 66949U 25286AA  25348.83340278 -.01562554  70399-3 -41375-2 0  9997", "line2": "2 66949  53.1560  39.9726 0000651  71.0352 228.4068 15.94091795  2330"}}, "geometry": {"type": "Point", "coordinates": [109.38873882572426, 51.861110057809974]}}, {"type": "Feature", "properties": {"norad_id": 66950, "name": "STARLINK-36111", "group": "last-30-days", "lat": 52.59049291237563, "lon": 115.28212031150781, "alt_km": 288.2861432196396, "timestamp": "2025-12-15T11:38:35.908343+00:00", "meta": {"OBJECT_NAME": "STARLINK-36111", "OBJECT_ID": "2025-286AB", "EPOCH": "2025-12-14T20:00:06.000192", "MEAN_MOTION": 15.94218768, "ECCENTRICITY": 7.412e-05, "INCLINATION": 53.1561, "RA_OF_ASC_NODE": 39.9656, "ARG_OF_PERICENTER": 77.2397, "MEAN_ANOMALY": 225.6218, "EPHEMERIS_TYPE": 0, "CLASSIFICATION_TYPE": "U", "NORAD_CAT_ID": 66950, "ELEMENT_SET_NO": 999, "REV_AT_EPOCH": 233, "BSTAR": -0.0041776036, "MEAN_MOTION_DOT": -0.01588044, "MEAN_MOTION_DDOT": 0.00072613274}, "tle": {"line1": "1 66950U 25286AB  25348.83340278 -.01588044  72613-3 -41776-2 0  9997", "line2": "2 66950  53.1561  39.9656 0000741  77.2397 225.6218 15.94218768  2339"}}, "geometry": {"type": "Point", "coordinates": [115.28212031150781, 52.59049291237563]}}, {"type": "Feature", "properties": {"norad_id": 66951, "name": "STARLINK-35999", "group": "last-30-days", "lat": 52.85695191805161, "lon": 118.49559739848799, "alt_km": 288.1189415786157, "timestamp": "2025-12-15T11:38:35.908352+00:00", "meta": {"OBJECT_NAME": "STARLINK-35999", "OBJECT_ID": "2025-286AC", "EPOCH": "2025-12-14T20:00:06.000192", "MEAN_MOTION": 15.94284921, "ECCENTRICITY": 6.888e-05, "INCLINATION": 53.1561, "RA_OF_ASC_NODE": 39.9617, "ARG_OF_PERICENTER": 74.078, "MEAN_ANOMALY": 230.6012, "EPHEMERIS_TYPE": 0, "CLASSIFICATION_TYPE": "U", "NORAD_CAT_ID": 66951, "ELEMENT_SET_NO": 999, "REV_AT_EPOCH": 233, "BSTAR": -0.0041820567, "MEAN_MOTION_DOT": -0.01595245, "MEAN_MOTION_DDOT": 0.00073267585}, "tle": {"line1": "1 66951U 25286AC  25348.83340278 -.01595245  73268-3 -41821-2 0  9997", "line2": "2 66951  53.1561  39.9617 0000688  74.0780 230.6012 15.94284921  2330"}}, "geometry": {"type": "Point", "coordinates": [118.49559739848799, 52.85695191805161]}}, {"type": "Feature", "properties": {"norad_id": 66952, "name": "STARLINK-36122", "group": "last-30-days", "lat": 52.26993932849473, "lon": 112.36952271476537, "alt_km": 288.46630348064446, "timestamp": "2025-12-15T11:38:35.908362+00:00", "meta": {"OBJECT_NAME": "STARLINK-36122", "OBJECT_ID": "2025-286AD", "EPOCH": "2025-12-14T20:00:06.000192", "MEAN_MOTION": 15.94156246, "ECCENTRICITY": 7.434e-05, "INCLINATION": 53.1562, "RA_OF_ASC_NODE": 39.9691, "ARG_OF_PERICENTER": 72.7342, "MEAN_ANOMALY": 228.4555, "EPHEMERIS_TYPE": 0, "CLASSIFICATION_TYPE": "U", "NORAD_CAT_ID": 66952, "ELEMENT_SET_NO": 999, "REV_AT_EPOCH": 233, "BSTAR": -0.0041649617, "MEAN_MOTION_DOT": -0.01578111, "MEAN_MOTION_DDOT": 0.0007173689}, "tle": {"line1": "1 66952U 25286AD  25348.83340278 -.01578111  71737-3 -41650-2 0  9990", "line2": "2 66952  53.1562  39.9691 0000743  72.7342 228.4555 15.94156246  2330"}}, "geometry": {"type": "Point", "coordinates": [112.36952271476537, 52.26993932849473]}}, {"type": "Feature", "properties": {"norad_id": 66953, "name": "HULIANWANG DIGUI-114", "group": "last-30-days", "lat": 30.557403381453806, "lon": -12.772069426296772, "alt_km": 1008.8023200580419, "timestamp": "2025-12-15T11:38:35.908372+00:00", "meta": {"OBJECT_NAME": "HULIANWANG DIGUI-114", "OBJECT_ID": "2025-287A", "EPOCH": "2025-12-11T05:43:48.442368", "MEAN_MOTION": 13.68688345, "ECCENTRICITY": 0.00085506, "INCLINATION": 86.4966, "RA_OF_ASC_NODE": 346.7027, "ARG_OF_PERICENTER": 209.4482, "MEAN_ANOMALY": 150.6197, "EPHEMERIS_TYPE": 0, "CLASSIFICATION_TYPE": "U", "NORAD_CAT_ID": 66953, "ELEMENT_SET_NO": 999, "REV_AT_EPOCH": 32, "BSTAR": 1.3583638e-05, "MEAN_MOTION_DOT": 2.8e-07, "MEAN_MOTION_DDOT": 0}, "tle": {"line1": "1 66953U 25287A   25345.23875512  .00000028  00000+0  13584-4 0  9999", "line2": "2 66953  86.4966 346.7027 0008550 209.4482 150.6197 13.68688345   322"}}, "geometry": {"type": "Point", "coordinates": [-12.772069426296772, 30.557403381453806]}}, {"type": "Feature", "properties": {"norad_id": 66954, "name": "HULIANWANG DIGUI-115", "group": "last-30-days", "lat": 32.9270512273034, "lon": -12.568904809803495, "alt_km": 1008.0804340845089, "timestamp": "2025-12-15T11:38:35.908384+00:00", "meta": {"OBJECT_NAME": "HULIANWANG DIGUI-115", "OBJECT_ID": "2025-287B", "EPOCH": "2025-12-14T23:12:05.154912", "MEAN_MOTION": 13.68791881, "ECCENTRICITY": 0.00087473, "INCLINATION": 86.4972, "RA_OF_ASC_NODE": 345.3468, "ARG_OF_PERICENTER": 197.0382, "MEAN_ANOMALY": 163.0485, "EPHEMERIS_TYPE": 0, "CLASSIFICATION_TYPE": "U", "NORAD_CAT_ID": 66954, "ELEMENT_SET_NO": 999, "REV_AT_EPOCH": 83, "BSTAR": 2.5809268e-05, "MEAN_MOTION_DOT": 3.9e-07, "MEAN_MOTION_DDOT": 0}, "tle": {"line1": "1 66954U 25287B   25348.96672633  .00000039  00000+0  25809-4 0  9997", "line2": "2 66954  86.4972 345.3468 0008747 197.0382 163.0485 13.68791881   837"}}, "geometry": {"type": "Point", "coordinates": [-12.568904809803495, 32.9270512273034]}}, {"type": "Feature", "properties": {"norad_id": 66955, "name": "HULIANWANG DIGUI-116", "group": "last-30-days", "lat": 35.54969338317677, "lon": -12.3389573116749, "alt_km": 1006.4805540262523, "timestamp": "2025-12-15T11:38:35.908396+00:00", "meta": {"OBJECT_NAME": "HULIANWANG DIGUI-116", "OBJECT_ID": "2025-287C", "EPOCH": "2025-12-14T02:08:18.133728", "MEAN_MOTION": 13.68903211, "ECCENTRICITY": 0.00080818, "INCLINATION": 86.4907, "RA_OF_ASC_NODE": 345.6576, "ARG_OF_PERICENTER": 193.9217, "MEAN_ANOMALY": 166.172, "EPHEMERIS_TYPE": 0, "CLASSIFICATION_TYPE": "U", "NORAD_CAT_ID": 66955, "ELEMENT_SET_NO": 999, "REV_AT_EPOCH": 71, "BSTAR": 2.5654516e-05, "MEAN_MOTION_DOT": 3.9e-07, "MEAN_MOTION_DDOT": 0}, "tle": {"line1": "1 66955U 25287C   25348.08909877  .00000039  00000+0  25655-4 0  9993", "line2": "2 66955  86.4907 345.6576 0008081 193.9217 166.1720 13.68903211   717"}}, "geometry": {"type": "Point", "coordinates": [-12.3389573116749, 35.54969338317677]}}, {"type": "Feature", "properties": {"norad_id": 66956, "name": "HULIANWANG DIGUI-117", "group": "last-30-days", "lat": 38.23347237889958, "lon": -12.075183981506912, "alt_km": 1004.746509224974, "timestamp": "2025-12-15T11:38:35.908410+00:00", "meta": {"OBJECT_NAME": "HULIANWANG DIGUI-117", "OBJECT_ID": "2025-287D", "EPOCH": "2025-12-11T19:45:00.614592", "MEAN_MOTION": 13.6901764, "ECCENTRICITY": 0.00072845, "INCLINATION": 86.4968, "RA_OF_ASC_NODE": 346.4938, "ARG_OF_PERICENTER": 195.1574, "MEAN_ANOMALY": 164.9368, "EPHEMERIS_TYPE": 0, "CLASSIFICATION_TYPE": "U", "NORAD_CAT_ID": 66956, "ELEMENT_SET_NO": 999, "REV_AT_EPOCH": 40, "BSTAR": 1.8810541e-05, "MEAN_MOTION_DOT": 3.3e-07, "MEAN_MOTION_DDOT": 0}, "tle": {"line1": "1 66956U 25287D   25345.82292378  .00000033  00000+0  18811-4 0  9994", "line2": "2 66956  86.4968 346.4938 0007284 195.1574 164.9368 13.69017640   403"}}, "geometry": {"type": "Point", "coordinates": [-12.075183981506912, 38.23347237889958]}}, {"type": "Feature", "properties": {"norad_id": 66957, "name": "HULIANWANG DIGUI-118", "group": "last-30-days", "lat": 40.96154361275646, "lon": -11.796202376923286, "alt_km": 1003.6040255014923, "timestamp": "2025-12-15T11:38:35.908420+00:00", "meta": {"OBJECT_NAME": "HULIANWANG DIGUI-118", "OBJECT_ID": "2025-287E", "EPOCH": "2025-12-12T16:47:31.774848", "MEAN_MOTION": 13.69137019, "ECCENTRICITY": 0.00072192, "INCLINATION": 86.4945, "RA_OF_ASC_NODE": 346.17, "ARG_OF_PERICENTER": 190.5502, "MEAN_ANOMALY": 169.5507, "EPHEMERIS_TYPE": 0, "CLASSIFICATION_TYPE": "U", "NORAD_CAT_ID": 66957, "ELEMENT_SET_NO": 999, "REV_AT_EPOCH": 52, "BSTAR": -0.00019372766, "MEAN_MOTION_DOT": -1.51e-06, "MEAN_MOTION_DDOT": 0}, "tle": {"line1": "1 66957U 25287E   25346.69967332 -.00000151  00000+0 -19373-3 0  9996", "line2": "2 66957  86.4945 346.1700 0007219 190.5502 169.5507 13.69137019   523"}}, "geometry": {"type": "Point", "coordinates": [-11.796202376923286, 40.96154361275646]}}]}